#dP2023  3 26 12  0  0.00000000      96 __u+U ITR00 EXT  IAC
## 2255  43200.00000000   900.00000000 60029 0.5000000000000
+  120   C06C07C08C09C10C11C12C13C14C16C19C20C21C22C23C24C25
+        C26C27C28C29C30C32C33C34C35C36C37C38C39C40C41C42C43
+        C44C45C46E01E02E03E04E05E07E08E09E10E11E12E13E14E15
+        E18E19E21E24E25E26E27E30E31E33E34E36G01G02G03G04G05
+        G06G07G08G09G10G11G12G13G14G15G16G17G18G19G20G21G22
+        G23G24G25G26G27G28G29G30G31G32J02J03J04R01R02R03R04
+        R05R07R08R09R11R12R13R14R15R16R17R18R19R20R21R22R24
+        R25  0  0  0  0  0  0  0  0  0  0  0  0  0  0  0  0
++        11  9 10  9  9  9 10  9  8  8  7  9  9  7  7  9  8
++         8  8  8  7  7  9  8  8 10  7  9  9 11  9  6  9  9
++         8  9  8  7  8  7  7  8  6  9  7  7  8  7  7  8  7
++         7  8  7  8  7  6 10  7  7  7  7  8  7  7  7  7  8
++         7  7  7  6  7  7  7  8  6  8  7  7  7  8  7  7  7
++         7  8  7  7  6  9  7  8  8  8  9  9  9  8 10  8  8
++         8  8  8  7  8  8  7  7  8  7  8  8  8 10  9  9  7
++        10  0  0  0  0  0  0  0  0  0  0  0  0  0  0  0  0
%c M  cc GPS ccc cccc cccc cccc cccc ccccc ccccc ccccc ccccc
%c cc cc ccc ccc cccc cccc cccc cccc ccccc ccccc ccccc ccccc
%f  0.0000000  0.000000000  0.00000000000  0.000000000000000
%f  0.0000000  0.000000000  0.00000000000  0.000000000000000
%i    0    0    0    0      0      0      0      0         0
%i    0    0    0    0      0      0      0      0         0
/* IAC                                ULTRA-RAPID PREDICTION
/* S/V CLOCKS ARE ALIGNED TO GNSS TIME                      
/* G:C1WC2W R:C1PC2P E:C1XC5X C:C2IC6I J:C1CC2S             
/* PCV:IGS20_2247 OL/AL:FES2004  NONE     YN ORB:CoN CLK:CoN
*  2023 03 27  3  0  0.00000000
PC06 -17181.725331  37159.726580   9505.749532   -196.955195
PC07  -3679.763948  33688.409235  25224.163810    -79.709130
PC08 -11956.433147  19454.745735 -35468.304378    513.963870
PC09 -10390.606614  36169.521395  18862.564135    836.515052
PC10   3446.962019  37020.276797  20637.920064    -18.552158
PC11 -13817.957231  23993.055238   3611.354031    728.335786
PC12 -18127.106729   9995.016494  18750.062333    531.957677
PC13  -4545.363443  21792.681741 -35664.922483    238.810007
PC14  -5506.249062  17050.757570 -21386.671089     43.375246
PC16 -18766.764185  36900.925279   7325.238066    127.294134
PC19  -2961.365519 -22438.592410  16339.259876   -897.548912
PC20  11905.761168 -10320.245981  23050.099707    658.710947
PC21 -20721.514165  -9022.024064 -16330.315444   -908.876628
PC22 -16850.016215 -22223.736426   -188.301881   -566.026401
PC23  14045.267459  13041.209170  20280.607205   -894.542032
PC24 -24298.331416   9855.629412   9569.417741   -245.725143
PC25  -5763.614323  16577.504729  21688.303115     94.923767
PC26 -27165.020215   -765.044641  -6438.954928    -97.586366
PC27  17083.001082   -721.912469 -22078.593587    116.519151
PC28   7981.228952  17186.754254 -20482.880495     85.537366
PC29   6057.156983 -26591.159322   5923.329960     98.897227
PC30  16543.947914 -18996.941151 -12044.319839      0.696240
PC32  20838.513607   8915.285937  16311.084784   -591.114223
PC33   3063.710422  22417.184362 -16337.701001   -871.343337
PC34 -16162.561533  19922.778576  10936.516443    135.413899
PC35  -7963.038129 -17802.745558  19964.328443    657.243292
PC36   6932.629612 -16386.657013 -21479.029412   -539.198994
PC37  26729.117285   2292.861404   7650.495906   -797.024174
PC38 -20832.408939  19805.135874 -30856.269202     67.662997
PC39 -20830.704780  36518.236925    318.707827     -2.327013
PC40  -6521.129216  30074.518423  28913.145780    -18.654941
PC41  16661.462625  22388.892502   -361.157248   -773.348638
PC42 -12810.862245   9175.030235 -22981.699908   -766.967989
PC43  -6647.318303  26595.044681  -5157.510433     13.713954
PC44 -17090.762995   1042.460224  22014.368369     56.843139
PC45 -14488.800435 -12756.064306 -20165.271461    -77.291201
PC46  23258.449310 -10686.443894 -11078.494414    -42.683189
PE01  19034.785623  -7365.195342 -21441.694231    -11.581218
PE02 -18672.239243   7683.966448  21641.229801     28.720892
PE03 -12274.864984  18205.265039 -19853.259112   -663.143385
PE04    455.988191 -29237.498426   4608.561187    -87.181021
PE05 -17169.765771  -3844.988081 -23794.518320    -82.622257
PE07  11876.253251  23442.596426  13641.581127    -32.927842
PE08   -500.703359  29207.188093  -4811.434861    -57.568140
PE09 -11738.771685 -23551.345435 -13532.964103   -883.206855
PE10   -679.762999 -18072.894285  23427.428897   -522.006538
PE11 -11329.494807 -11592.227485  24757.210400   1392.179203
PE12   9096.675316 -21234.425664  18520.998642   -474.276887
PE13  10551.799835  12096.191103 -24866.555922    -18.042640
PE14  -1906.982786 -23908.070650   2714.774754    179.768903
PE15  -9396.880227  21247.651764 -18327.442942    -10.246987
PE18   9527.580187  28193.942613 -12436.857224   -236.740545
PE19  13417.025983 -15583.304200  21304.085072  -2912.081217
PE21  27662.500451   6432.694236  -8340.058375   -519.833844
PE24 -20576.756564 -18099.289320 -11241.508646  -1187.380176
PE25 -27699.799473  -6689.686215   8022.327146   -602.106525
PE26  24424.701716  -4568.142170 -16086.756043     57.262199
PE27  21221.543048  17724.795154  10546.144761    -10.046522
PE30   1584.791656  18332.722468  23166.337370    -43.353562
PE31  -2360.388292 -18461.223204 -23018.638484   -519.640400
PE33  23647.467542 -17790.240153   1025.753111   -448.001976
PE34 -23541.548862  17904.031514  -1184.592366    -37.006626
PE36 -24053.637988   4001.437206  16771.374631    -32.206745
PG01  -7748.843587  18367.881428 -17688.231831    198.876827
PG02   3175.197290 -18904.372052  19106.509968   -611.291779
PG03   3065.183438  17033.838430 -20305.888707   -342.325589
PG04   -338.687328  26484.638996   -803.707672      2.242695
PG05  13763.529200  -9320.463590  20572.340565   -121.031704
PG06  22063.677922  -2471.465814 -14587.094887    583.957922
PG07   7389.681558  13807.207830  21880.843860    214.720522
PG08  -7279.054235  22016.763940  12518.412356   -114.836588
PG09   8055.528998  23512.478141   9231.556720   -192.605511
PG10 -24174.670472 -11251.830539  -1686.473438    -30.238308
PG11  23596.704525 -12036.407921  -1678.209228   -142.739608
PG12    510.468748 -16691.630470 -20956.353864   -356.435831
PG13  12914.251013 -15983.945506  16541.097813    496.615639
PG14  22972.351076  13467.218802    644.404083      7.161261
PG15   4464.608813 -23140.104008  11529.473788     25.139981
PG16 -17024.379408   5175.005177  19556.079720   -512.972561
PG17  12709.975407  12690.169339 -19103.530070    707.580521
PG18 -10544.629230 -10927.029587  21804.513250   -197.190558
PG19  14903.009594   2267.451634 -22104.128645    295.434430
PG20  21647.618219  -4104.787380  14723.293664    442.560823
PG21 -14518.629227  19325.278433  -9401.530073    154.324187
PG22 -14985.496406   1936.897199 -21388.010174    452.858739
PG23 -18787.364595 -16308.672569   9511.105667     12.937131
PG24  10106.874602 -20428.195454 -13635.048015   -127.803992
PG25 -11007.786619 -18421.000933 -16139.673430    430.878261
PG26 -24528.317409  -2573.332147  10176.061874    241.968002
PG27 -12794.872298  12262.670593  19401.436676     72.240018
PG28 -21260.755194   1156.319956 -15901.708759     52.868467
PG29  -3367.046274 -25536.951140   6244.598708   -592.768341
PG30  18351.020695   4866.176176  18777.008662   -525.204140
PG31 -23917.063901   5444.787244 -10914.497119   -212.556213
PG32 -14552.550622  -9331.671530 -20044.303620   -434.805629
PJ02 -27840.931164  21212.823359  28537.950548     -1.316178
PJ03 -33814.692391  24929.288376   8940.309571      1.414726
PJ04 -22284.579267  22922.916825 -22329.192564     94.146789
PR01   9538.592700  -5528.386095  23009.838811     25.515934
PR02  -1931.353556 -20391.199373  15295.473659    -23.058169
PR03 -11827.543277 -22603.062552  -1138.523130     74.921611
PR04 -14723.362127 -12440.108095 -16678.769214    180.950432
PR05  -9781.675910   4497.019070 -23107.434687    109.981053
PR07  12161.617588  22297.645330   2123.068709     52.576448
PR08  14876.163161  12056.379815  16901.220967    -70.081464
PR09  -6019.792595  10832.220131  22298.583741    111.362685
PR11  24218.033126   4351.749005   6758.980486    -25.128588
PR12  22007.508892  -4545.088951 -12033.478061     25.969913
PR13   8148.913044 -10180.945954 -21941.303625    -33.331697
PR14 -12786.880990 -10159.361004 -19582.329017     24.475652
PR15 -24551.631235  -4087.289943  -5564.991629     90.204312
PR16 -22145.810751   4511.411349  11799.993975     12.840943
PR17  -1121.045737 -15070.215572  20546.832536    615.819051
PR18 -11897.074229   -567.276578  22560.787977     73.474162
PR19 -17029.987503  12822.180894  14003.222298   -226.807963
PR20 -12252.489710  21450.116161  -6251.096122    -90.029414
PR21   2187.528435  13834.616705 -21324.601191   -383.372150
PR22  12706.364028    296.241338 -22094.042827     76.636783
PR24  11080.960250 -21934.881139   6841.032786    156.991516
PR25    416.268661  15462.675264 -20283.298997     58.879303
EOF
